{
  "type": "FeatureCollection",
  "features": [
    {
      "type": "Feature",
      "properties": {
        "norad_id": 41773,
        "name": "SKYSAT-C2",
        "group": "resource",
        "lat": -44.40273439422471,
        "lon": -166.22252405748685,
        "alt_km": 462.0084140466024,
        "timestamp": "2025-12-22T14:45:57.042315+00:00",
        "meta_object_name": "SKYSAT-C2",
        "meta_object_id": "2016-058D",
        "meta_epoch": "2025-12-22T07:32:35.189952",
        "meta_mean_motion": 15.3747422,
        "meta_eccentricity": 0.00031479,
        "meta_inclination": 97.0347,
        "meta_ra_of_asc_node": 20.4355,
        "meta_arg_of_pericenter": 6.5378,
        "meta_mean_anomaly": 353.5908,
        "meta_ephemeris_type": 0,
        "meta_classification_type": "U",
        "meta_norad_cat_id": 41773,
        "meta_element_set_no": 999,
        "meta_rev_at_epoch": 51783,
        "meta_bstar": 0.00034148155,
        "meta_mean_motion_dot": 0.0001248,
        "meta_mean_motion_ddot": 0,
        "tle_line1": "1 41773U 16058D   25356.31429618  .00012480  00000+0  34148-3 0  9994",
        "tle_line2": "2 41773  97.0347  20.4355 0003147   6.5378 353.5908 15.37474220517839"
      },
      "geometry": {
        "type": "Point",
        "coordinates": [
          -166.22252405748685,
          -44.40273439422471
        ]
      }
    },
    {
      "type": "Feature",
      "properties": {
        "norad_id": 41774,
        "name": "SKYSAT-C3",
        "group": "resource",
        "lat": -51.10705754409007,
        "lon": 38.572900010450475,
        "alt_km": 440.4645103049461,
        "timestamp": "2025-12-22T14:45:57.042328+00:00",
        "meta_object_name": "SKYSAT-C3",
        "meta_object_id": "2016-058E",
        "meta_epoch": "2025-12-22T02:33:05.139936",
        "meta_mean_motion": 15.44711366,
        "meta_eccentricity": 0.00020568,
        "meta_inclination": 96.9285,
        "meta_ra_of_asc_node": 29.4174,
        "meta_arg_of_pericenter": 107.2334,
        "meta_mean_anomaly": 252.9141,
        "meta_ephemeris_type": 0,
        "meta_classification_type": "U",
        "meta_norad_cat_id": 41774,
        "meta_element_set_no": 999,
        "meta_rev_at_epoch": 51870,
        "meta_bstar": 0.00042430023,
        "meta_mean_motion_dot": 0.00019752,
        "meta_mean_motion_ddot": 0,
        "tle_line1": "1 41774U 16058E   25356.10630949  .00019752  00000+0  42430-3 0  9995",
        "tle_line2": "2 41774  96.9285  29.4174 0002056 107.2334 252.9141 15.44711366518707"
      },
      "geometry": {
        "type": "Point",
        "coordinates": [
          38.572900010450475,
          -51.10705754409007
        ]
      }
    },
    {
      "type": "Feature",
      "properties": {
        "norad_id": 41785,
        "name": "ALSAT 1B",
        "group": "resource",
        "lat": 64.39770176508723,
        "lon": -155.4419559710322,
        "alt_km": 642.2319765902312,
        "timestamp": "2025-12-22T14:45:57.042338+00:00",
        "meta_object_name": "ALSAT 1B",
        "meta_object_id": "2016-059C",
        "meta_epoch": "2025-12-22T06:05:31.676640",
        "meta_mean_motion": 14.72083002,
        "meta_eccentricity": 0.00108003,
        "meta_inclination": 97.7805,
        "meta_ra_of_asc_node": 7.6329,
        "meta_arg_of_pericenter": 76.726,
        "meta_mean_anomaly": 283.5152,
        "meta_ephemeris_type": 0,
        "meta_classification_type": "U",
        "meta_norad_cat_id": 41785,
        "meta_element_set_no": 999,
        "meta_rev_at_epoch": 49454,
        "meta_bstar": -1.237436e-06,
        "meta_mean_motion_dot": -5.5e-07,
        "meta_mean_motion_ddot": 0,
        "tle_line1": "1 41785U 16059C   25356.25383885 -.00000055  00000+0 -12374-5 0  9992",
        "tle_line2": "2 41785  97.7805   7.6329 0010800  76.7260 283.5152 14.72083002494546"
      },
      "geometry": {
        "type": "Point",
        "coordinates": [
          -155.4419559710322,
          64.39770176508723
        ]
      }
    },
    {
      "type": "Feature",
      "properties": {
        "norad_id": 41787,
        "name": "PATHFINDER 1",
        "group": "resource",
        "lat": 23.8053761079152,
        "lon": -4.542476586360019,
        "alt_km": 650.3465726236609,
        "timestamp": "2025-12-22T14:45:57.042349+00:00",
        "meta_object_name": "PATHFINDER 1",
        "meta_object_id": "2016-059E",
        "meta_epoch": "2025-12-22T06:28:26.824224",
        "meta_mean_motion": 14.67337318,
        "meta_eccentricity": 0.00297504,
        "meta_inclination": 97.8136,
        "meta_ra_of_asc_node": 358.6011,
        "meta_arg_of_pericenter": 52.167,
        "meta_mean_anomaly": 308.2221,
        "meta_ephemeris_type": 0,
        "meta_classification_type": "U",
        "meta_norad_cat_id": 41787,
        "meta_element_set_no": 999,
        "meta_rev_at_epoch": 49376,
        "meta_bstar": 0.00014297781,
        "meta_mean_motion_dot": 7.66e-06,
        "meta_mean_motion_ddot": 0,
        "tle_line1": "1 41787U 16059E   25356.26975491  .00000766  00000+0  14298-3 0  9997",
        "tle_line2": "2 41787  97.8136 358.6011 0029750  52.1670 308.2221 14.67337318493761"
      },
      "geometry": {
        "type": "Point",
        "coordinates": [
          -4.542476586360019,
          23.8053761079152
        ]
      }
    },
    {
      "type": "Feature",
      "properties": {
        "norad_id": 41790,
        "name": "SCATSAT 1",
        "group": "resource",
        "lat": 67.97819665068185,
        "lon": 32.67057003436845,
        "alt_km": 590.742106289118,
        "timestamp": "2025-12-22T14:45:57.042360+00:00",
        "meta_object_name": "SCATSAT 1",
        "meta_object_id": "2016-059H",
        "meta_epoch": "2025-12-21T17:20:44.942496",
        "meta_mean_motion": 14.7896339,
        "meta_eccentricity": 0.00564715,
        "meta_inclination": 98.145,
        "meta_ra_of_asc_node": 52.5048,
        "meta_arg_of_pericenter": 99.6908,
        "meta_mean_anomaly": 261.0688,
        "meta_ephemeris_type": 0,
        "meta_classification_type": "U",
        "meta_norad_cat_id": 41790,
        "meta_element_set_no": 999,
        "meta_rev_at_epoch": 7535,
        "meta_bstar": 0.00015688521,
        "meta_mean_motion_dot": 1.132e-05,
        "meta_mean_motion_ddot": 0,
        "tle_line1": "1 41790U 16059H   25355.72274239  .00001132  00000+0  15689-3 0  9996",
        "tle_line2": "2 41790  98.1450  52.5048 0056471  99.6908 261.0688 14.78963390 75359"
      },
      "geometry": {
        "type": "Point",
        "coordinates": [
          32.67057003436845,
          67.97819665068185
        ]
      }
    },
    {
      "type": "Feature",
      "properties": {
        "norad_id": 41875,
        "name": "GOKTURK 1A",
        "group": "resource",
        "lat": -58.686226076871435,
        "lon": -97.5375573408751,
        "alt_km": 691.992524055031,
        "timestamp": "2025-12-22T14:45:57.042370+00:00",
        "meta_object_name": "GOKTURK 1A",
        "meta_object_id": "2016-073A",
        "meta_epoch": "2025-12-22T06:49:47.234208",
        "meta_mean_motion": 14.6278958,
        "meta_eccentricity": 0.00012966,
        "meta_inclination": 98.1433,
        "meta_ra_of_asc_node": 248.5226,
        "meta_arg_of_pericenter": 81.2999,
        "meta_mean_anomaly": 278.835,
        "meta_ephemeris_type": 0,
        "meta_classification_type": "U",
        "meta_norad_cat_id": 41875,
        "meta_element_set_no": 999,
        "meta_rev_at_epoch": 48296,
        "meta_bstar": 9.4741604e-05,
        "meta_mean_motion_dot": 4.36e-06,
        "meta_mean_motion_ddot": 0,
        "tle_line1": "1 41875U 16073A   25356.28457447  .00000436  00000+0  94742-4 0  9996",
        "tle_line2": "2 41875  98.1433 248.5226 0001296  81.2999 278.8350 14.62789580482962"
      },
      "geometry": {
        "type": "Point",
        "coordinates": [
          -97.5375573408751,
          -58.686226076871435
        ]
      }
    },
    {
      "type": "Feature",
      "properties": {
        "norad_id": 41877,
        "name": "RESOURCESAT-2A",
        "group": "resource",
        "lat": -32.00579208689426,
        "lon": 71.9535868904436,
        "alt_km": 826.4633137230803,
        "timestamp": "2025-12-22T14:45:57.042380+00:00",
        "meta_object_name": "RESOURCESAT-2A",
        "meta_object_id": "2016-074A",
        "meta_epoch": "2025-12-22T06:28:19.836192",
        "meta_mean_motion": 14.21602801,
        "meta_eccentricity": 0.00014894,
        "meta_inclination": 98.775,
        "meta_ra_of_asc_node": 66.0702,
        "meta_arg_of_pericenter": 210.6549,
        "meta_mean_anomaly": 149.4541,
        "meta_ephemeris_type": 0,
        "meta_classification_type": "U",
        "meta_norad_cat_id": 41877,
        "meta_element_set_no": 999,
        "meta_rev_at_epoch": 46916,
        "meta_bstar": 3.3653705e-05,
        "meta_mean_motion_dot": 2.9e-07,
        "meta_mean_motion_ddot": 0,
        "tle_line1": "1 41877U 16074A   25356.26967403  .00000029  00000+0  33654-4 0  9998",
        "tle_line2": "2 41877  98.7750  66.0702 0001489 210.6549 149.4541 14.21602801469164"
      },
      "geometry": {
        "type": "Point",
        "coordinates": [
          71.9535868904436,
          -32.00579208689426
        ]
      }
    }
  ]
}